[{"OBJECT_NAME":"TIANQI-15","OBJECT_ID":"2021-065B","EPOCH":"2026-03-09T19:28:45.472224","MEAN_MOTION":15.09508085,"ECCENTRICITY":0.00070671,"INCLINATION":34.9979,"RA_OF_ASC_NODE":108.242,"ARG_OF_PERICENTER":250.7766,"MEAN_ANOMALY":109.218,"EPHEMERIS_TYPE":0,"CLASSIFICATION_TYPE":"U","NORAD_CAT_ID":49027,"ELEMENT_SET_NO":999,"REV_AT_EPOCH":25424,"BSTAR":0.00041179088,"MEAN_MOTION_DOT":6.722e-5,"MEAN_MOTION_DDOT":0},{"OBJECT_NAME":"STARLINK-5329","OBJECT_ID":"2023-065L","EPOCH":"2026-03-09T22:00:01.999584","MEAN_MOTION":15.07028896,"ECCENTRICITY":0.00010618,"INCLINATION":43.0012,"RA_OF_ASC_NODE":209.1261,"ARG_OF_PERICENTER":301.7755,"MEAN_ANOMALY":238.7903,"EPHEMERIS_TYPE":0,"CLASSIFICATION_TYPE":"U","NORAD_CAT_ID":56513,"ELEMENT_SET_NO":999,"REV_AT_EPOCH":572,"BSTAR":0.0044050098,"MEAN_MOTION_DOT":0.00067561,"MEAN_MOTION_DDOT":0}]
